#dV2023  1  3 22  0  0.00000000    1682       CTS   FIT  GFZ
## 2243 252000.00000000    30.00000000 59947 0.9166666666667
+    1   L64  0  0  0  0  0  0  0  0  0  0  0  0  0  0  0  0
+          0  0  0  0  0  0  0  0  0  0  0  0  0  0  0  0  0
+          0  0  0  0  0  0  0  0  0  0  0  0  0  0  0  0  0
+          0  0  0  0  0  0  0  0  0  0  0  0  0  0  0  0  0
+          0  0  0  0  0  0  0  0  0  0  0  0  0  0  0  0  0
++         0  0  0  0  0  0  0  0  0  0  0  0  0  0  0  0  0
++         0  0  0  0  0  0  0  0  0  0  0  0  0  0  0  0  0
++         0  0  0  0  0  0  0  0  0  0  0  0  0  0  0  0  0
++         0  0  0  0  0  0  0  0  0  0  0  0  0  0  0  0  0
++         0  0  0  0  0  0  0  0  0  0  0  0  0  0  0  0  0
%c L  cc GPS ccc cccc cccc cccc cccc ccccc ccccc ccccc ccccc
%c cc cc ccc ccc cccc cccc cccc cccc ccccc ccccc ccccc ccccc
%f  0.0000000  0.000000000  0.00000000000  0.000000000000000
%f  0.0000000  0.000000000  0.00000000000  0.000000000000000
%i    0    0    0    0      0      0      0      0         0
%i    0    0    0    0      0      0      0      0         0
/* CCCCCCCCCCCCCCCCCCCCCCCCCCCCCCCCCCCCCCCCCCCCCCCCCCCCCCCCCCCCCCCCCCCCCCCCCCCCC
/* C                             GFZ RSO-ORBIT                                 C
/* C DOI: https://doi.org/10.5880/GFZ_ORBIT/RSO/L64_G_v02                      C
/* C                                                                           C
/* C DORIS        RMS: not applicable                                          C
/* C GNSS-E Code  RMS: not applicable                                          C
/* C GNSS-E Phase RMS: not applicable                                          C
/* C GNSS-G Code  RMS:  49.205 [cm]   Obs.acc.:     14262 Obs.eli.:      1120  C
/* C GNSS-G Phase RMS:   4.076 [mm]   Obs.acc.:     14262 Obs.eli.:      1120  C
/* C SLR          RMS:   2.378 [cm]   Obs.acc.:        86 Obs.eli.:         0  C
/* C                                                                           C
/* CCCCCCCCCCCCCCCCCCCCCCCCCCCCCCCCCCCCCCCCCCCCCCCCCCCCCCCCCCCCCCCCCCCCCCCCCCCCC
*  2023  1  3 22 51  0.00000000
PL64   1079.683092  -4272.460023  -5268.565661  18171.424218
VL64  13222.057225 -56872.197240  48862.380156 999999.999999
*  2023  1  3 22 51 30.00000000
PL64   1118.378708  -4440.782377  -5119.088967  18171.884211
VL64  12573.762220 -55331.880658  50779.637790 999999.999999
*  2023  1  3 22 52  0.00000000
PL64   1155.118611  -4604.387185  -4963.943570  18172.344631
VL64  11918.413401 -53727.444177  52641.161520 999999.999999
*  2023  1  3 22 52 30.00000000
PL64   1189.883126  -4763.084624  -4803.299827  18172.805162
VL64  11257.001502 -52060.592145  54444.858092 999999.999999
*  2023  1  3 22 53  0.00000000
PL64   1222.655548  -4916.690100  -4637.334283  18173.265437
VL64  10590.517494 -50333.105594  56188.695471 999999.999999
*  2023  1  3 22 53 30.00000000
PL64   1253.422148  -5065.024476  -4466.229484  18173.725282
VL64   9919.950986 -48546.840064  57870.705795 999999.999999
*  2023  1  3 22 54  0.00000000
PL64   1282.172158  -5207.914288  -4290.173779  18174.184804
VL64   9246.288623 -46703.723508  59488.987803 999999.999999
*  2023  1  3 22 54 30.00000000
PL64   1308.897766  -5345.191962  -4109.361120  18174.644458
VL64   8570.512601 -44805.753924  61041.709074 999999.999999
*  2023  1  3 22 55  0.00000000
PL64   1333.594097  -5476.696022  -3923.990850  18175.104183
VL64   7893.599408 -42854.997262  62527.107712 999999.999999
*  2023  1  3 22 55 30.00000000
PL64   1356.259196  -5602.271288  -3734.267488  18175.563643
VL64   7216.518953 -40853.585806  63943.494562 999999.999999
*  2023  1  3 22 56  0.00000000
PL64   1376.894006  -5721.769076  -3540.400511  18176.023018
VL64   6540.233165 -38803.715939  65289.255600 999999.999999
*  2023  1  3 22 56 30.00000000
PL64   1395.502342  -5835.047382  -3342.604120  18176.482482
VL64   5865.694250 -36707.645896  66562.854020 999999.999999
*  2023  1  3 22 57  0.00000000
PL64   1412.090860  -5941.971067  -3141.097009  18176.942156
VL64   5193.843481 -34567.693484  67762.832423 999999.999999
*  2023  1  3 22 57 30.00000000
PL64   1426.669021  -6042.412034  -2936.102124  18177.401560
VL64   4525.610209 -32386.233714  68887.815084 999999.999999
*  2023  1  3 22 58  0.00000000
PL64   1439.249055  -6136.249390  -2727.846409  18177.861123
VL64   3861.910599 -30165.696077  69936.510494 999999.999999
*  2023  1  3 22 58 30.00000000
PL64   1449.845920  -6223.369611  -2516.560556  18178.320152
VL64   3203.646131 -27908.560921  70907.713559 999999.999999
*  2023  1  3 22 59  0.00000000
PL64   1458.477253  -6303.666684  -2302.478740  18178.779108
VL64   2551.702319 -25617.355832  71800.306633 999999.999999
*  2023  1  3 22 59 30.00000000
PL64   1465.163324  -6377.042247  -2085.838359  18179.237201
VL64   1906.947760 -23294.652949  72613.260326 999999.999999
*  2023  1  3 23  0  0.00000000
PL64   1469.926980  -6443.405717  -1866.879761  18179.695355
VL64   1270.232880 -20943.066179  73345.634727 999999.999999
*  2023  1  3 23  0 30.00000000
PL64   1472.793591  -6502.674412  -1645.845982  18180.154320
VL64    642.387231 -18565.248592  73996.580196 999999.999999
*  2023  1  3 23  1  0.00000000
PL64   1473.790979  -6554.773667  -1422.982469  18180.612904
VL64     24.216650 -16163.891285  74565.339139 999999.999999
*  2023  1  3 23  1 30.00000000
PL64   1472.949349  -6599.636945  -1198.536799  18181.069866
VL64   -583.496556 -13741.720824  75051.249363 999999.999999
*  2023  1  3 23  2  0.00000000
PL64   1470.301219  -6637.205935   -972.758390  18181.526652
VL64  -1179.991444 -11301.493570  75453.746263 999999.999999
*  2023  1  3 23  2 30.00000000
PL64   1465.881359  -6667.430629   -745.898205  18181.984722
VL64  -1764.528297  -8845.989293  75772.363137 999999.999999
*  2023  1  3 23  3  0.00000000
PL64   1459.726724  -6690.269391   -518.208464  18182.443531
VL64  -2336.391376  -6378.005990  76006.730434 999999.999999
*  2023  1  3 23  3 30.00000000
PL64   1451.876375  -6705.688998   -289.942350  18182.902559
VL64  -2894.891635  -3900.356582  76156.573484 999999.999999
*  2023  1  3 23  4  0.00000000
PL64   1442.371400  -6713.664692    -61.353732  18183.361791
VL64  -3439.367152  -1415.869747  76221.710586 999999.999999
*  2023  1  3 23  4 30.00000000
PL64   1431.254833  -6714.180225    167.303119  18183.821169
VL64  -3969.183125   1072.608886  76202.056676 999999.999999
*  2023  1  3 23  5  0.00000000
PL64   1418.571567  -6707.227904    395.773830  18184.280502
VL64  -4483.734523   3562.222566  76097.628368 999999.999999
*  2023  1  3 23  5 30.00000000
PL64   1404.368264  -6692.808613    623.804229  18184.739890
VL64  -4982.448260   6050.112191  75908.542634 999999.999999
*  2023  1  3 23  6  0.00000000
PL64   1388.693258  -6670.931813    851.140639  18185.198981
VL64  -5464.781736   8533.419427  75635.013307 999999.999999
*  2023  1  3 23  6 30.00000000
PL64   1371.596469  -6641.615537   1077.530175  18185.658042
VL64  -5930.220983  11009.286915  75277.353154 999999.999999
*  2023  1  3 23  7  0.00000000
PL64   1353.129312  -6604.886381   1302.721039  18186.117224
VL64  -6378.281807  13474.866101  74835.977409 999999.999999
*  2023  1  3 23  7 30.00000000
PL64   1333.344609  -6560.779460   1526.462832  18186.576469
VL64  -6808.512564  15927.325729  74311.397707 999999.999999
*  2023  1  3 23  8  0.00000000
PL64   1312.296487  -6509.338362   1748.506821  18187.035778
VL64  -7220.494239  18363.850058  73704.216492 999999.999999
*  2023  1  3 23  8 30.00000000
PL64   1290.040281  -6450.615097   1968.606223  18187.495081
VL64  -7613.840091  20781.638012  73015.130131 999999.999999
*  2023  1  3 23  9  0.00000000
PL64   1266.632436  -6384.670052   2186.516486  18187.954581
VL64  -7988.197448  23177.908840  72244.931347 999999.999999
*  2023  1  3 23  9 30.00000000
PL64   1242.130403  -6311.571916   2401.995582  18188.414070
VL64  -8343.249012  25549.908938  71394.507047 999999.999999
*  2023  1  3 23 10  0.00000000
PL64   1216.592531  -6231.397594   2614.804276  18188.873620
VL64  -8678.712337  27894.914691  70464.833576 999999.999999
*  2023  1  3 23 10 30.00000000
PL64   1190.077967  -6144.232117   2824.706397  18189.333036
VL64  -8994.338806  30210.232606  69456.976203 999999.999999
*  2023  1  3 23 11  0.00000000
PL64   1162.646551  -6050.168546   3031.469102  18189.792456
VL64  -9289.913775  32493.203923  68372.090041 999999.999999
*  2023  1  3 23 11 30.00000000
PL64   1134.358718  -5949.307860   3234.863148  18190.251866
VL64  -9565.256658  34741.209656  67211.417253 999999.999999
*  2023  1  3 23 12  0.00000000
PL64   1105.275391  -5841.758832   3434.663143  18190.711235
VL64  -9820.220999  36951.673281  65976.284343 999999.999999
*  2023  1  3 23 12 30.00000000
PL64   1075.457883  -5727.637896   3630.647800  18191.170557
VL64 -10054.694688  39122.063222  64668.100143 999999.999999
*  2023  1  3 23 13  0.00000000
PL64   1044.967793  -5607.069012   3822.600179  18191.630089
VL64 -10268.599676  41249.895102  63288.353872 999999.999999
*  2023  1  3 23 13 30.00000000
PL64   1013.866899  -5480.183520   4010.307926  18192.089714
VL64 -10461.891787  43332.733899  61838.613760 999999.999999
*  2023  1  3 23 14  0.00000000
PL64    982.217066  -5347.119987   4193.563511  18192.549455
VL64 -10634.560893  45368.196601  60320.525969 999999.999999
*  2023  1  3 23 14 30.00000000
PL64    950.080134  -5208.024046   4372.164455  18193.009027
VL64 -10786.631198  47353.955883  58735.813032 999999.999999
*  2023  1  3 23 15  0.00000000
PL64    917.517820  -5063.048225   4545.913558  18193.468384
VL64 -10918.161074  49287.743668  57086.270936 999999.999999
*  2023  1  3 23 15 30.00000000
PL64    884.591617  -4912.351763   4714.619115  18193.927828
VL64 -11029.242376  51167.353810  55373.766138 999999.999999
*  2023  1  3 23 16  0.00000000
PL64    851.362691  -4756.100424   4878.095124  18194.387239
VL64 -11119.999527  52990.644510  53600.232829 999999.999999
EOF
